#aV2024 11 12  0  0  0.00000000     288 DD+AD WGS84 FIT  NGA
## 2340 172800.00000000   300.00000000 60626 0.0000000000000
+   31     2  3  4  5  6  7  8  9 10 11 12 13 14 15 16 17 18
+         19 20 21 22 23 24 25 26 27 28 29 30 31 32  0  0  0
+          0  0  0  0  0  0  0  0  0  0  0  0  0  0  0  0  0
+          0  0  0  0  0  0  0  0  0  0  0  0  0  0  0  0  0
+          0  0  0  0  0  0  0  0  0  0  0  0  0  0  0  0  0
++         2  2  2  2  2  2  2  2  2  2  2  2  2  2  2  2  2
++         2  2  2  2  2  2  2  2  2  2  2  2  2  2  0  0  0
++         0  0  0  0  0  0  0  0  0  0  0  0  0  0  0  0  0
++         0  0  0  0  0  0  0  0  0  0  0  0  0  0  0  0  0
++         0  0  0  0  0  0  0  0  0  0  0  0  0  0  0  0  0
%c cc cc ccc ccc cccc cccc cccc cccc ccccc ccccc ccccc ccccc
%c cc cc ccc ccc cccc cccc cccc cccc ccccc ccccc ccccc ccccc
%f  0.0000000  0.000000000  0.00000000000  0.000000000000000
%f  0.0000000  0.000000000  0.00000000000  0.000000000000000
%i    0    0    0    0      0      0      0      0         0
%i    0    0    0    0      0      0      0      0         0
/*      NGA, ST. LOUIS,MO.                                  
/*   EPHEMERIS COMPUTED FROM 2 DAYS OF DATA                 
/*   EPOCHA v9 SMOOTHER                                     
/*   G2296 IERS2010 SATIGS SATAPC                           
*  2024 11 12  3 30  0.00000000
P  2  17514.981452   4357.022661  20074.260715   -316.534773                    
V  2   9876.195762  22259.281305 -13426.186837      0.085226                    
P  3  19874.620220  -8379.964199  15259.234768    597.405939                    
V  3 -11253.808470  16201.992011  23407.562407      0.104794                    
P  4  25641.103408   -103.186711  -7208.033705    477.970095                    
V  4   8505.599299   4090.173465  29990.993082      0.065045                    
P  5 -13427.607506  -6973.478064 -22011.782977   -192.723688                    
V  5  16098.559334 -22264.486693  -2727.150671     -0.011863                    
P  6  -4491.279730 -25252.031727   6743.859412   -107.911848                    
V  6   4679.860478   7307.929674  30916.216109     -0.290490                    
P  7  10412.871112 -12937.650819 -20093.893836    -20.705662                    
V  7  10889.211028  24599.715919 -10382.033408      0.023488                    
P  8  25590.148262   6476.186845  -4753.274343    411.145053                    
V  8  -6097.097465   1972.548768 -30476.678927      0.103482                    
P  9  20396.526354  -8019.613468 -15142.122513    439.751102                    
V  9  18619.022756   4454.672590  22795.651676      0.169886                    
P 10  -7692.459601  22231.750663  12207.416042   -192.515685                    
V 10 -11048.699026  10652.279129 -27177.866358     -0.143460                    
P 11 -12548.449571 -22348.698191  -7049.776500   -749.663860                    
V 11   -484.249655  -9302.585268  30128.093881     -0.017538                    
P 12 -19553.059682   3241.223239  17373.830985   -551.484297                    
V 12  14114.645379 -17789.768493  18938.209346     -0.025307                    
P 13 -20240.091436 -13877.127347 -10689.285174    685.651141                    
V 13  13112.248551   2038.286288 -27857.454568      0.016101                    
P 14  11053.406342 -22512.247424   8427.363438    537.892163                    
V 14   9392.900127  -6110.821805 -29027.287959      0.081338                    
P 15 -26037.649936  -3559.501972  -4893.133179    226.737539                    
V 15   5560.502144  -3303.798974 -30302.318798      0.045190                    
P 16   9490.168357  12207.985909 -21913.554064   -130.666481                    
V 16 -19055.892826  19183.723024   2917.807864      0.098064                    
P 17   5256.929155 -14461.235993  22075.990317    561.989141                    
V 17  26359.581630   5887.398320  -2279.779949     -0.143825                    
P 18  -9029.691901  14872.811465 -19970.364133   -660.214065                    
V 18  -9722.337959 -23547.971860 -13342.640573     -0.005097                    
P 19  -6664.963482 -16112.244099  20013.918710    561.717000                    
V 19  24957.757065   5746.976972  12424.914771      0.044757                    
P 20  -5854.502126 -17432.113118 -19137.781785    368.820186                    
V 20  12894.320843 -20797.011151  14795.206360     -0.003390                    
P 21  18451.077426  11265.099073  16504.383948     97.670107                    
V 21   7817.855506  18232.683685 -20641.342903     -0.008980                    
P 22   5288.545617 -21218.335946  15683.582460    -78.719432                    
V 22  14478.983232 -12539.801238 -22118.339534     -0.029367                    
P 23 -16671.048042  20477.637943  -1182.581171    361.399407                    
V 23   -915.080480  -2654.621243 -32324.010405      0.079600                    
P 24 -18185.812563  -6720.730302  17863.325735   -480.734639                    
V 24  -8945.833948 -21874.090416 -16503.087066      0.020743                    
P 25 -19432.093507  15963.182201   7767.676768    499.065306                    
V 25   3832.176461 -10218.775525  29536.365474     -0.002579                    
P 26   1204.574607  20524.263158 -16778.306672     29.162758                    
V 26 -13976.728949  16174.031323  19362.550004     -0.131036                    
P 27  18866.518342  12863.243111 -14218.302705    -34.728657                    
V 27 -17461.635494   -761.009930 -23949.052655      0.000578                    
P 28   3891.227872  24807.136810   8637.984911   -476.183506                    
V 28  -6640.756360  -9129.092800  29160.216407     -0.118966                    
P 29 -21618.505334   5242.117002 -14648.115006   -564.442618                    
V 29 -17550.199086  -6009.378171  23696.206250      0.028567                    
P 30   2576.410662 -22144.452048 -14087.396643   -283.729042                    
V 30   9344.426347  16019.583677 -23496.094551      0.077715                    
P 31  10599.323134  24012.988426  -2624.502547   -221.912773                    
V 31  -2079.029825   4018.733541  31617.171541      0.006505                    
P 32  -1067.118044  15268.600769  21932.784998   -574.928071                    
V 32 -27022.839797  -3955.275611   1251.185908      0.051945                    
EOF
